[{"OBJECT_NAME":"STARLINK-5820","OBJECT_ID":"2023-028AS","EPOCH":"2026-03-09T19:28:07.575456","MEAN_MOTION":14.9832895,"ECCENTRICITY":0.0003108,"INCLINATION":70,"RA_OF_ASC_NODE":224.0872,"ARG_OF_PERICENTER":269.6171,"MEAN_ANOMALY":90.4631,"EPHEMERIS_TYPE":0,"CLASSIFICATION_TYPE":"U","NORAD_CAT_ID":55781,"ELEMENT_SET_NO":999,"REV_AT_EPOCH":16655,"BSTAR":-4.7828208e-5,"MEAN_MOTION_DOT":-6.64e-6,"MEAN_MOTION_DDOT":0},{"OBJECT_NAME":"LEMUR-2-STAR-FOX","OBJECT_ID":"2025-009CR","EPOCH":"2026-03-09T19:30:12.149568","MEAN_MOTION":15.00891969,"ECCENTRICITY":0.00025005,"INCLINATION":97.7038,"RA_OF_ASC_NODE":151.2547,"ARG_OF_PERICENTER":152.191,"MEAN_ANOMALY":207.9448,"EPHEMERIS_TYPE":0,"CLASSIFICATION_TYPE":"U","NORAD_CAT_ID":62696,"ELEMENT_SET_NO":999,"REV_AT_EPOCH":6264,"BSTAR":0.000772765,"MEAN_MOTION_DOT":9.785e-5,"MEAN_MOTION_DDOT":0}]
