STARLINK-5820           
1 55781U 23028AS  26068.81119879 -.00000664  00000+0 -47828-4 0  9997
2 55781  70.0000 224.0872 0003108 269.6171  90.4631 14.98328950166559
LEMUR-2-STAR-FOX        
1 62696U 25009CR  26068.81264061  .00009785  00000+0  77276-3 0  9995
2 62696  97.7038 151.2547 0002501 152.1910 207.9448 15.00891969 62647
